STARLINK-1320
1 45572U 20025AT  26090.69864670  .00103851  00000+0  76200-3 0  9990
2 45572  53.0461 236.8387 0004270 103.8518 256.2975 15.72347049330262
